{
  "links" : {
    "next" : "https://api.nasa.gov/neo/rest/v1/feed?start_date=2016-03-09&end_date=2016-03-09&detailed=true&api_key=t0TVs3DtDT2H8Oy2Zy8m2eVrNsAVKAexjcZXUckd",
    "prev" : "https://api.nasa.gov/neo/rest/v1/feed?start_date=2016-03-07&end_date=2016-03-07&detailed=true&api_key=t0TVs3DtDT2H8Oy2Zy8m2eVrNsAVKAexjcZXUckd",
    "self" : "https://api.nasa.gov/neo/rest/v1/feed?start_date=2016-03-08&end_date=2016-03-08&detailed=true&api_key=t0TVs3DtDT2H8Oy2Zy8m2eVrNsAVKAexjcZXUckd"
  },
  "element_count" : 15,
  "near_earth_objects" : {
    "2016-03-08" : [ {
      "links" : {
        "self" : "https://api.nasa.gov/neo/rest/v1/neo/3728574?api_key=t0TVs3DtDT2H8Oy2Zy8m2eVrNsAVKAexjcZXUckd"
      },
      "neo_reference_id" : "3728574",
      "name" : "(2015 SZ2)",
      "nasa_jpl_url" : "http://ssd.jpl.nasa.gov/sbdb.cgi?sstr=3728574",
      "absolute_magnitude_h" : 25.4,
      "estimated_diameter" : {
        "kilometers" : {
          "estimated_diameter_min" : 0.022108281,
          "estimated_diameter_max" : 0.0494356193
        },
        "meters" : {
          "estimated_diameter_min" : 22.1082810359,
          "estimated_diameter_max" : 49.435619262
        },
        "miles" : {
          "estimated_diameter_min" : 0.0137374447,
          "estimated_diameter_max" : 0.0307178602
        },
        "feet" : {
          "estimated_diameter_min" : 72.5337327539,
          "estimated_diameter_max" : 162.1903570994
        }
      },
      "is_potentially_hazardous_asteroid" : false,
      "close_approach_data" : [ {
        "close_approach_date" : "2016-03-08",
        "epoch_date_close_approach" : 1457424000000,
        "relative_velocity" : {
          "kilometers_per_second" : "5.0136203197",
          "kilometers_per_hour" : "18049.0331508903",
          "miles_per_hour" : "11214.9672931185"
        },
        "miss_distance" : {
          "astronomical" : "0.2793501435",
          "lunar" : "108.6671981812",
          "kilometers" : "41790184",
          "miles" : "25967218"
        },
        "orbiting_body" : "Earth"
      } ],
      "orbital_data" : {
        "orbit_id" : "21",
        "orbit_determination_date" : "2017-04-06 08:31:47",
        "orbit_uncertainty" : "3",
        "minimum_orbit_intersection" : ".00340549",
        "jupiter_tisserand_invariant" : "5.262",
        "epoch_osculation" : "2458000.5",
        "eccentricity" : ".2414735678313192",
        "semi_major_axis" : "1.200965093352444",
        "inclination" : "4.293687954384653",
        "ascending_node_longitude" : "184.1117586334794",
        "orbital_period" : "480.7220065532712",
        "perihelion_distance" : ".9109637674197556",
        "perihelion_argument" : "240.424437574643",
        "aphelion_distance" : "1.490966419285132",
        "perihelion_time" : "2457825.567378027079",
        "mean_anomaly" : "131.0024152249269",
        "mean_motion" : ".7488735591307002",
        "equinox" : "J2000"
      }
    }, {
      "links" : {
        "self" : "https://api.nasa.gov/neo/rest/v1/neo/3736004?api_key=t0TVs3DtDT2H8Oy2Zy8m2eVrNsAVKAexjcZXUckd"
      },
      "neo_reference_id" : "3736004",
      "name" : "(2015 XB128)",
      "nasa_jpl_url" : "http://ssd.jpl.nasa.gov/sbdb.cgi?sstr=3736004",
      "absolute_magnitude_h" : 25.4,
      "estimated_diameter" : {
        "kilometers" : {
          "estimated_diameter_min" : 0.022108281,
          "estimated_diameter_max" : 0.0494356193
        },
        "meters" : {
          "estimated_diameter_min" : 22.1082810359,
          "estimated_diameter_max" : 49.435619262
        },
        "miles" : {
          "estimated_diameter_min" : 0.0137374447,
          "estimated_diameter_max" : 0.0307178602
        },
        "feet" : {
          "estimated_diameter_min" : 72.5337327539,
          "estimated_diameter_max" : 162.1903570994
        }
      },
      "is_potentially_hazardous_asteroid" : false,
      "close_approach_data" : [ {
        "close_approach_date" : "2016-03-08",
        "epoch_date_close_approach" : 1457424000000,
        "relative_velocity" : {
          "kilometers_per_second" : "6.1353685643",
          "kilometers_per_hour" : "22087.3268315096",
          "miles_per_hour" : "13724.2059415011"
        },
        "miss_distance" : {
          "astronomical" : "0.3193836209",
          "lunar" : "124.2402267456",
          "kilometers" : "47779112",
          "miles" : "29688562"
        },
        "orbiting_body" : "Earth"
      } ],
      "orbital_data" : {
        "orbit_id" : "5",
        "orbit_determination_date" : "2017-04-06 08:30:10",
        "orbit_uncertainty" : "7",
        "minimum_orbit_intersection" : ".0158312",
        "jupiter_tisserand_invariant" : "7.083",
        "epoch_osculation" : "2458000.5",
        "eccentricity" : ".2359344552400581",
        "semi_major_axis" : ".8207593589853356",
        "inclination" : "15.55233176401228",
        "ascending_node_longitude" : "245.0889086711751",
        "orbital_period" : "271.5952638285449",
        "perihelion_distance" : ".6271139467399511",
        "perihelion_argument" : "15.80931376042888",
        "aphelion_distance" : "1.01440477123072",
        "perihelion_time" : "2458053.560447376259",
        "mean_anomaly" : "289.6682836578777",
        "mean_motion" : "1.325501759217952",
        "equinox" : "J2000"
      }
    }, {
      "links" : {
        "self" : "https://api.nasa.gov/neo/rest/v1/neo/3746000?api_key=t0TVs3DtDT2H8Oy2Zy8m2eVrNsAVKAexjcZXUckd"
      },
      "neo_reference_id" : "3746000",
      "name" : "(2016 EU84)",
      "nasa_jpl_url" : "http://ssd.jpl.nasa.gov/sbdb.cgi?sstr=3746000",
      "absolute_magnitude_h" : 29.0,
      "estimated_diameter" : {
        "kilometers" : {
          "estimated_diameter_min" : 0.0042126461,
          "estimated_diameter_max" : 0.0094197631
        },
        "meters" : {
          "estimated_diameter_min" : 4.2126461056,
          "estimated_diameter_max" : 9.4197630572
        },
        "miles" : {
          "estimated_diameter_min" : 0.0026176161,
          "estimated_diameter_max" : 0.0058531676
        },
        "feet" : {
          "estimated_diameter_min" : 13.821017849,
          "estimated_diameter_max" : 30.9047354285
        }
      },
      "is_potentially_hazardous_asteroid" : false,
      "close_approach_data" : [ {
        "close_approach_date" : "2016-03-08",
        "epoch_date_close_approach" : 1457424000000,
        "relative_velocity" : {
          "kilometers_per_second" : "2.6664626495",
          "kilometers_per_hour" : "9599.2655382917",
          "miles_per_hour" : "5964.6103007235"
        },
        "miss_distance" : {
          "astronomical" : "0.0035735703",
          "lunar" : "1.3901188374",
          "kilometers" : "534598.5",
          "miles" : "332184.125"
        },
        "orbiting_body" : "Earth"
      } ],
      "orbital_data" : {
        "orbit_id" : "9",
        "orbit_determination_date" : "2017-04-06 08:27:39",
        "orbit_uncertainty" : "5",
        "minimum_orbit_intersection" : ".00522956",
        "jupiter_tisserand_invariant" : "6.488",
        "epoch_osculation" : "2458000.5",
        "eccentricity" : ".09525062689465012",
        "semi_major_axis" : ".920605232752854",
        "inclination" : "3.198115647881229",
        "ascending_node_longitude" : "169.112415334728",
        "orbital_period" : "322.6328507493137",
        "perihelion_distance" : ".8329170072106493",
        "perihelion_argument" : "206.0824121172804",
        "aphelion_distance" : "1.008293458295058",
        "perihelion_time" : "2457968.977178939118",
        "mean_anomaly" : "35.17377587422104",
        "mean_motion" : "1.115819418772457",
        "equinox" : "J2000"
      }
    } ]
  }
}